[{"OBJECT_NAME":"KUIPER-00024","OBJECT_ID":"2025-088Q","EPOCH":"2026-03-09T11:03:07.949088","MEAN_MOTION":14.79924198,"ECCENTRICITY":7.822e-5,"INCLINATION":51.9036,"RA_OF_ASC_NODE":94.1265,"ARG_OF_PERICENTER":82.5725,"MEAN_ANOMALY":277.5327,"EPHEMERIS_TYPE":0,"CLASSIFICATION_TYPE":"U","NORAD_CAT_ID":63738,"ELEMENT_SET_NO":999,"REV_AT_EPOCH":4802,"BSTAR":0.00026756845,"MEAN_MOTION_DOT":1.819e-5,"MEAN_MOTION_DDOT":0},{"OBJECT_NAME":"CZ-4B DEB","OBJECT_ID":"1999-057HN","EPOCH":"2026-03-09T18:25:21.450432","MEAN_MOTION":14.85566097,"ECCENTRICITY":0.00485224,"INCLINATION":98.2919,"RA_OF_ASC_NODE":162.1261,"ARG_OF_PERICENTER":121.345,"MEAN_ANOMALY":0.0093,"EPHEMERIS_TYPE":0,"CLASSIFICATION_TYPE":"U","NORAD_CAT_ID":26329,"ELEMENT_SET_NO":999,"REV_AT_EPOCH":37257,"BSTAR":0.0017246939,"MEAN_MOTION_DOT":0.000152,"MEAN_MOTION_DDOT":0}]
